API VERSION: 1.2
API SOURCE: NASA/JPL Horizons API



*******************************************************************************
Ephemeris / API_USER Mon Oct 30 14:04:53 2023 Pasadena, USA      / Horizons    
*******************************************************************************
Target body name: Moon (301)                      {source: DE441}
Center body name: Earth (399)                     {source: DE441}
Center-site name: GEOCENTRIC
*******************************************************************************
Start time      : A.D. 2045-Jan-01 00:00:00.0000 UT      
Stop  time      : A.D. 2046-Jan-01 00:00:00.0000 UT      
Step-size       : 60 minutes
*******************************************************************************
Target pole/equ : MOON_ME                         {East-longitude positive}
Target radii    : 1737.4, 1737.4, 1737.4 km       {Equator_a, b, pole_c}       
Center geodetic : 0.0, 0.0, -6378.137             {E-lon(deg),Lat(deg),Alt(km)}
Center cylindric: 0.0, 0.0, 0.0                   {E-lon(deg),Dxy(km),Dz(km)}
Center pole/equ : ITRF93                          {East-longitude positive}
Center radii    : 6378.137, 6378.137, 6356.752 km {Equator_a, b, pole_c}       
Target primary  : Earth
Vis. interferer : MOON (R_eq= 1737.400) km        {source: DE441}
Rel. light bend : Sun                             {source: DE441}
Rel. lght bnd GM: 1.3271E+11 km^3/s^2                                          
Atmos refraction: NO (AIRLESS)
RA format       : HMS
Time format     : CAL 
Calendar mode   : Mixed Julian/Gregorian
EOP file        : eop.231027.p240119                                           
EOP coverage    : DATA-BASED 1962-JAN-20 TO 2023-OCT-27. PREDICTS-> 2024-JAN-18
Units conversion: 1 au= 149597870.700 km, c= 299792.458 km/s, 1 day= 86400.0 s 
Table cut-offs 1: Elevation (-90.0deg=NO ),Airmass (>38.000=NO), Daylight (NO )
Table cut-offs 2: Solar elongation (  0.0,180.0=NO ),Local Hour Angle( 0.0=NO )
Table cut-offs 3: RA/DEC angular rate (     0.0=NO )                           
Table format    : Comma Separated Values (spreadsheet)
***********************************************************************************************************************************************
 Date__(UT)__HR:MN, , , R.A._(ICRF), DEC__(ICRF),      Illu%,  ObsSub-LON, ObsSub-LAT,  SunSub-LON, SunSub-LAT,    NP.ang,  NP.dist,     S-T-O,
***********************************************************************************************************************************************
$$SOE
 2045-Sep-27 21:00, , , 01 17 48.89, +13 05 37.5,   97.31795,  355.333286,  -5.902479,  337.065411,  -1.094503,  338.7168, -900.755,   18.8568,
 2045-Sep-27 22:00, , , 01 19 45.49, +13 18 33.1,   97.18390,  355.305980,  -5.930863,  336.558419,  -1.095213,  338.7761, -900.998,   19.3265,
 2045-Sep-27 23:00, , , 01 21 42.36, +13 31 25.9,   97.04649,  355.279037,  -5.958770,  336.051425,  -1.095922,  338.8373, -901.242,   19.7969,
 2045-Sep-28 00:00, , , 01 23 39.51, +13 44 15.7,   96.90571,  355.252456,  -5.986195,  335.544429,  -1.096628,  338.9002, -901.488,   20.2680,
 2045-Sep-28 01:00, , , 01 25 36.95, +13 57 02.5,   96.76157,  355.226237,  -6.013137,  335.037431,  -1.097333,  338.9648, -901.736,   20.7396,
 2045-Sep-28 02:00, , , 01 27 34.67, +14 09 46.2,   96.61407,  355.200382,  -6.039591,  334.530431,  -1.098035,  339.0312, -901.987,   21.2119,
 2045-Sep-28 03:00, , , 01 29 32.68, +14 22 26.8,   96.46321,  355.174891,  -6.065555,  334.023428,  -1.098735,  339.0995, -902.239,   21.6848,
 2045-Sep-28 04:00, , , 01 31 30.99, +14 35 04.1,   96.30901,  355.149763,  -6.091026,  333.516423,  -1.099433,  339.1695, -902.492,   22.1582,
 2045-Sep-28 05:00, , , 01 33 29.60, +14 47 38.1,   96.15145,  355.125000,  -6.116000,  333.009415,  -1.100128,  339.2413, -902.748,   22.6322,
 2045-Sep-28 06:00, , , 01 35 28.50, +15 00 08.8,   95.99055,  355.100602,  -6.140475,  332.502405,  -1.100822,  339.3149, -903.006,   23.1067,
 2045-Sep-28 07:00, , , 01 37 27.71, +15 12 36.0,   95.82631,  355.076569,  -6.164448,  331.995392,  -1.101514,  339.3903, -903.266,   23.5817,
 2045-Sep-28 08:00, , , 01 39 27.23, +15 24 59.7,   95.65874,  355.052902,  -6.187915,  331.488376,  -1.102203,  339.4675, -903.527,   24.0573,
 2045-Sep-28 09:00, , , 01 41 27.06, +15 37 19.9,   95.48784,  355.029600,  -6.210874,  330.981357,  -1.102890,  339.5466, -903.791,   24.5333,
 2045-Sep-28 10:00, , , 01 43 27.20, +15 49 36.4,   95.31361,  355.006664,  -6.233322,  330.474335,  -1.103576,  339.6275, -904.057,   25.0099,
 2045-Sep-28 11:00, , , 01 45 27.66, +16 01 49.3,   95.13607,  354.984095,  -6.255256,  329.967310,  -1.104259,  339.7102, -904.324,   25.4869,
 2045-Sep-28 12:00, , , 01 47 28.43, +16 13 58.3,   94.95521,  354.961893,  -6.276674,  329.460283,  -1.104940,  339.7947, -904.594,   25.9645,
 2045-Sep-28 13:00, , , 01 49 29.54, +16 26 03.5,   94.77105,  354.940057,  -6.297572,  328.953251,  -1.105620,  339.8812, -904.866,   26.4425,
 2045-Sep-28 14:00, , , 01 51 30.96, +16 38 04.7,   94.58358,  354.918589,  -6.317948,  328.446217,  -1.106297,  339.9694, -905.139,   26.9210,
 2045-Sep-28 15:00, , , 01 53 32.72, +16 50 02.0,   94.39282,  354.897488,  -6.337799,  327.939179,  -1.106972,  340.0596, -905.415,   27.3999,
 2045-Sep-28 16:00, , , 01 55 34.81, +17 01 55.2,   94.19877,  354.876755,  -6.357123,  327.432138,  -1.107645,  340.1516, -905.693,   27.8793,
 2045-Sep-28 17:00, , , 01 57 37.23, +17 13 44.3,   94.00144,  354.856389,  -6.375916,  326.925093,  -1.108316,  340.2454, -905.973,   28.3591,
 2045-Sep-28 18:00, , , 01 59 39.99, +17 25 29.1,   93.80084,  354.836392,  -6.394176,  326.418045,  -1.108985,  340.3412, -906.255,   28.8394,
 2045-Sep-28 19:00, , , 02 01 43.09, +17 37 09.7,   93.59697,  354.816764,  -6.411902,  325.910992,  -1.109653,  340.4388, -906.539,   29.3201,
 2045-Sep-28 20:00, , , 02 03 46.53, +17 48 45.9,   93.38984,  354.797504,  -6.429089,  325.403936,  -1.110318,  340.5384, -906.825,   29.8013,
 2045-Sep-28 21:00, , , 02 05 50.32, +18 00 17.6,   93.17947,  354.778613,  -6.445736,  324.896877,  -1.110981,  340.6398, -907.113,   30.2829,
 2045-Sep-28 22:00, , , 02 07 54.45, +18 11 44.9,   92.96584,  354.760090,  -6.461840,  324.389813,  -1.111642,  340.7431, -907.404,   30.7649,
 2045-Sep-28 23:00, , , 02 09 58.94, +18 23 07.5,   92.74899,  354.741937,  -6.477400,  323.882745,  -1.112302,  340.8483, -907.696,   31.2473,
 2045-Sep-29 00:00, , , 02 12 03.78, +18 34 25.5,   92.52891,  354.724154,  -6.492411,  323.375673,  -1.112959,  340.9554, -907.991,   31.7302,
 2045-Sep-29 01:00, , , 02 14 08.97, +18 45 38.8,   92.30561,  354.706740,  -6.506873,  322.868596,  -1.113615,  341.0645, -908.288,   32.2135,
 2045-Sep-29 02:00, , , 02 16 14.52, +18 56 47.3,   92.07910,  354.689695,  -6.520782,  322.361516,  -1.114269,  341.1754, -908.587,   32.6972,
 2045-Sep-29 03:00, , , 02 18 20.43, +19 07 50.9,   91.84940,  354.673021,  -6.534138,  321.854431,  -1.114920,  341.2883, -908.888,   33.1813,
 2045-Sep-29 04:00, , , 02 20 26.71, +19 18 49.5,   91.61650,  354.656716,  -6.546936,  321.347342,  -1.115570,  341.4031, -909.191,   33.6659,
 2045-Sep-29 05:00, , , 02 22 33.34, +19 29 43.1,   91.38043,  354.640782,  -6.559176,  320.840248,  -1.116218,  341.5198, -909.497,   34.1508,
 2045-Sep-29 06:00, , , 02 24 40.34, +19 40 31.6,   91.14119,  354.625217,  -6.570855,  320.333149,  -1.116865,  341.6384, -909.805,   34.6362,
 2045-Sep-29 07:00, , , 02 26 47.71, +19 51 14.8,   90.89879,  354.610024,  -6.581971,  319.826046,  -1.117509,  341.7589, -910.115,   35.1220,
 2045-Sep-29 08:00, , , 02 28 55.45, +20 01 52.8,   90.65324,  354.595201,  -6.592521,  319.318938,  -1.118152,  341.8814, -910.427,   35.6082,
 2045-Sep-29 09:00, , , 02 31 03.56, +20 12 25.5,   90.40455,  354.580749,  -6.602505,  318.811825,  -1.118793,  342.0059, -910.741,   36.0947,
 2045-Sep-29 10:00, , , 02 33 12.04, +20 22 52.7,   90.15274,  354.566667,  -6.611920,  318.304707,  -1.119432,  342.1322, -911.058,   36.5817,
 2045-Sep-29 11:00, , , 02 35 20.90, +20 33 14.5,   89.89781,  354.552957,  -6.620763,  317.797584,  -1.120070,  342.2605, -911.377,   37.0692,
 2045-Sep-29 12:00, , , 02 37 30.13, +20 43 30.6,   89.63978,  354.539618,  -6.629034,  317.290456,  -1.120705,  342.3907, -911.698,   37.5570,
 2045-Sep-29 13:00, , , 02 39 39.74, +20 53 41.1,   89.37866,  354.526651,  -6.636731,  316.783323,  -1.121339,  342.5228, -912.021,   38.0452,
 2045-Sep-29 14:00, , , 02 41 49.73, +21 03 45.9,   89.11446,  354.514055,  -6.643850,  316.276184,  -1.121972,  342.6569, -912.347,   38.5338,
 2045-Sep-29 15:00, , , 02 44 00.09, +21 13 44.9,   88.84719,  354.501830,  -6.650392,  315.769040,  -1.122602,  342.7929, -912.675,   39.0228,
 2045-Sep-29 16:00, , , 02 46 10.84, +21 23 37.9,   88.57687,  354.489978,  -6.656354,  315.261891,  -1.123231,  342.9309, -913.005,   39.5123,
 2045-Sep-29 17:00, , , 02 48 21.97, +21 33 25.0,   88.30350,  354.478497,  -6.661734,  314.754736,  -1.123858,  343.0708, -913.337,   40.0021,
 2045-Sep-29 18:00, , , 02 50 33.48, +21 43 06.0,   88.02711,  354.467389,  -6.666531,  314.247576,  -1.124484,  343.2126, -913.672,   40.4923,
 2045-Sep-29 19:00, , , 02 52 45.37, +21 52 40.9,   87.74770,  354.456652,  -6.670743,  313.740409,  -1.125108,  343.3563, -914.009,   40.9830,
 2045-Sep-29 20:00, , , 02 54 57.64, +22 02 09.6,   87.46529,  354.446288,  -6.674369,  313.233238,  -1.125731,  343.5019, -914.348,   41.4740,
 2045-Sep-29 21:00, , , 02 57 10.30, +22 11 32.0,   87.17989,  354.436297,  -6.677407,  312.726060,  -1.126352,  343.6495, -914.690,   41.9654,
 2045-Sep-29 22:00, , , 02 59 23.35, +22 20 48.1,   86.89152,  354.426679,  -6.679856,  312.218876,  -1.126971,  343.7990, -915.034,   42.4573,
 2045-Sep-29 23:00, , , 03 01 36.78, +22 29 57.7,   86.60019,  354.417433,  -6.681714,  311.711687,  -1.127589,  343.9504, -915.380,   42.9495,
